{
  "type": "FeatureCollection",
  "features": [
    {"type": "Feature", "properties": {"name": "Delhi"}, "geometry": {"type": "Polygon", "coordinates": [[[76.8, 28.4], [77.3, 28.4], [77.3, 28.9], [76.8, 28.9], [76.8, 28.4]]]}},
    {"type": "Feature", "properties": {"name": "Madhya Pradesh"}, "geometry": {"type": "Polygon", "coordinates": [[[74.0, 21.0], [82.8, 21.0], [82.8, 26.9], [74.0, 26.9], [74.0, 21.0]]]}},
    {"type": "Feature", "properties": {"name": "Maharashtra"}, "geometry": {"type": "Polygon", "coordinates": [[[72.6, 15.6], [80.9, 15.6], [80.9, 22.0], [72.6, 22.0], [72.6, 15.6]]]}},
    {"type": "Feature", "properties": {"name": "Uttar Pradesh"}, "geometry": {"type": "Polygon", "coordinates": [[[77.0, 23.8], [84.3, 23.8], [84.3, 30.4], [77.0, 30.4], [77.0, 23.8]]]}},
    {"type": "Feature", "properties": {"name": "Rajasthan"}, "geometry": {"type": "Polygon", "coordinates": [[[68.2, 23.0], [78.0, 23.0], [78.0, 37.0], [68.2, 37.0], [68.2, 23.0]]]}},
    {"type": "Feature", "properties": {"name": "Gujarat"}, "geometry": {"type": "Polygon", "coordinates": [[[68.1, 20.6], [74.5, 20.6], [74.5, 24.5], [68.1, 24.5], [68.1, 20.6]]]}},
    {"type": "Feature", "properties": {"name": "West Bengal"}, "geometry": {"type": "Polygon", "coordinates": [[[85.8, 21.6], [89.9, 21.6], [89.9, 27.4], [85.8, 27.4], [85.8, 21.6]]]}},
    {"type": "Feature", "properties": {"name": "Punjab"}, "geometry": {"type": "Polygon", "coordinates": [[[73.6, 29.5], [76.6, 29.5], [76.6, 32.3], [73.6, 32.3], [73.6, 29.5]]]}},
    {"type": "Feature", "properties": {"name": "Karnataka"}, "geometry": {"type": "Polygon", "coordinates": [[[74.0, 11.5], [78.6, 11.5], [78.6, 18.5], [74.0, 18.5], [74.0, 11.5]]]}},
    {"type": "Feature", "properties": {"name": "Haryana"}, "geometry": {"type": "Polygon", "coordinates": [[[76.5, 27.0], [78.0, 27.0], [78.0, 30.6], [76.5, 30.6], [76.5, 27.0]]]}},
    {"type": "Feature", "properties": {"name": "Tamil Nadu"}, "geometry": {"type": "Polygon", "coordinates": [[[78.6, 8.0], [80.3, 8.0], [80.3, 13.6], [78.6, 13.6], [78.6, 8.0]]]}},
    {"type": "Feature", "properties": {"name": "Bihar"}, "geometry": {"type": "Polygon", "coordinates": [[[82.3, 24.3], [88.3, 24.3], [88.3, 27.5], [82.3, 27.5], [82.3, 24.3]]]}},
    {"type": "Feature", "properties": {"name": "Jharkhand"}, "geometry": {"type": "Polygon", "coordinates": [[[82.2, 22.0], [87.5, 22.0], [87.5, 25.3], [82.2, 25.3], [82.2, 22.0]]]}},
    {"type": "Feature", "properties": {"name": "Chhattisgarh"}, "geometry": {"type": "Polygon", "coordinates": [[[80.6, 19.4], [84.3, 19.4], [84.3, 24.0], [80.6, 24.0], [80.6, 19.4]]]}},
    {"type": "Feature", "properties": {"name": "Odisha"}, "geometry": {"type": "Polygon", "coordinates": [[[83.3, 17.7], [87.5, 17.7], [87.5, 22.6], [83.3, 22.6], [83.3, 17.7]]]}},
    {"type": "Feature", "properties": {"name": "Assam"}, "geometry": {"type": "Polygon", "coordinates": [[[88.0, 24.0], [97.4, 24.0], [97.4, 28.3], [88.0, 28.3], [88.0, 24.0]]]}},
    {"type": "Feature", "properties": {"name": "Telangana"}, "geometry": {"type": "Polygon", "coordinates": [[[77.3, 15.8], [81.9, 15.8], [81.9, 19.9], [77.3, 19.9], [77.3, 15.8]]]}},
    {"type": "Feature", "properties": {"name": "Andhra Pradesh"}, "geometry": {"type": "Polygon", "coordinates": [[[76.8, 12.6], [84.7, 12.6], [84.7, 18.5], [76.8, 18.5], [76.8, 12.6]]]}},
    {"type": "Feature", "properties": {"name": "Meghalaya"}, "geometry": {"type": "Polygon", "coordinates": [[[90.0, 24.7], [92.3, 24.7], [92.3, 26.2], [90.0, 26.2], [90.0, 24.7]]]}},
    {"type": "Feature", "properties": {"name": "Goa"}, "geometry": {"type": "Polygon", "coordinates": [[[73.7, 14.8], [74.3, 14.8], [74.3, 15.9], [73.7, 15.9], [73.7, 14.8]]]}},
    {"type": "Feature", "properties": {"name": "Kerala"}, "geometry": {"type": "Polygon", "coordinates": [[[76.2, 8.3], [77.6, 8.3], [77.6, 12.8], [76.2, 12.8], [76.2, 8.3]]]}},
    {"type": "Feature", "properties": {"name": "Himachal Pradesh"}, "geometry": {"type": "Polygon", "coordinates": [[[75.5, 30.2], [78.9, 30.2], [78.9, 33.1], [75.5, 33.1], [75.5, 30.2]]]}},
    {"type": "Feature", "properties": {"name": "Uttarakhand"}, "geometry": {"type": "Polygon", "coordinates": [[[77.6, 28.8], [81.0, 28.8], [81.0, 31.5], [77.6, 31.5], [77.6, 28.8]]]}},
    {"type": "Feature", "properties": {"name": "Tripura"}, "geometry": {"type": "Polygon", "coordinates": [[[91.2, 22.6], [92.2, 22.6], [92.2, 23.9], [91.2, 23.9], [91.2, 22.6]]]}},
    {"type": "Feature", "properties": {"name": "Manipur"}, "geometry": {"type": "Polygon", "coordinates": [[[93.0, 23.8], [94.8, 23.8], [94.8, 25.2], [93.0, 25.2], [93.0, 23.8]]]}},
    {"type": "Feature", "properties": {"name": "Mizoram"}, "geometry": {"type": "Polygon", "coordinates": [[[92.2, 21.4], [93.5, 21.4], [93.5, 23.8], [92.2, 23.8], [92.2, 21.4]]]}},
    {"type": "Feature", "properties": {"name": "Nagaland"}, "geometry": {"type": "Polygon", "coordinates": [[[93.3, 25.1], [94.9, 25.1], [94.9, 27.0], [93.3, 27.0], [93.3, 25.1]]]}},
    {"type": "Feature", "properties": {"name": "Arunachal Pradesh"}, "geometry": {"type": "Polygon", "coordinates": [[[91.5, 26.6], [97.4, 26.6], [97.4, 29.0], [91.5, 29.0], [91.5, 26.6]]]}},
    {"type": "Feature", "properties": {"name": "Sikkim"}, "geometry": {"type": "Polygon", "coordinates": [[[87.3, 27.1], [88.6, 27.1], [88.6, 28.2], [87.3, 28.2], [87.3, 27.1]]]}},
    {"type": "Feature", "properties": {"name": "Ladakh"}, "geometry": {"type": "Polygon", "coordinates": [[[75.6, 32.6], [79.6, 32.6], [79.6, 35.4], [75.6, 35.4], [75.6, 32.6]]]}},
    {"type": "Feature", "properties": {"name": "Chandigarh"}, "geometry": {"type": "Polygon", "coordinates": [[[76.8, 30.6], [76.9, 30.6], [76.9, 30.7], [76.8, 30.7], [76.8, 30.6]]]}},
    {"type": "Feature", "properties": {"name": "Puducherry"}, "geometry": {"type": "Polygon", "coordinates": [[[79.8, 11.8], [79.9, 11.8], [79.9, 11.9], [79.8, 11.9], [79.8, 11.8]]]}},
    {"type": "Feature", "properties": {"name": "Dadra and Nagar Haveli"}, "geometry": {"type": "Polygon", "coordinates": [[[72.8, 19.9], [73.4, 19.9], [73.4, 20.5], [72.8, 20.5], [72.8, 19.9]]]}},
    {"type": "Feature", "properties": {"name": "Andaman and Nicobar"}, "geometry": {"type": "Polygon", "coordinates": [[[91.5, 6.7], [94.3, 6.7], [94.3, 13.6], [91.5, 13.6], [91.5, 6.7]]]}},
    {"type": "Feature", "properties": {"name": "Lakshadweep"}, "geometry": {"type": "Polygon", "coordinates": [[[72.0, 9.8], [73.7, 9.8], [73.7, 12.7], [72.0, 12.7], [72.0, 9.8]]]}}
  ]
}
